STARLINK-30899          
1 58420U 23180U   26068.38888234  .00001297  00000+0  56666-4 0  9990
2 58420  43.0007  53.9313 0001219 272.5860  87.4852 15.27566389127468
TEVEL2-1                
1 63217U 25052H   26068.64782323  .00020683  00000+0  70600-3 0  9994
2 63217  97.3991 324.7682 0004767 104.8919 255.2849 15.30341923 54855
